[
    {
        "Altitude(m)": 582796.2653055134,
        "Argument of Periapsis(deg)": -0.007534386927657468,
        "Eccentricity": 0.0,
        "Inclination(deg)": 97.0,
        "Latitude(deg)": -49.93910405731255,
        "Longitude(deg)": 27.58885940539228,
        "Mean Anomaly(deg)": -50.18495224360425,
        "RAAN(deg)": 120.00198235120617,
        "Satellite Name": "Starlink Shell 3 1864",
        "Satellite Number": 1864,
        "Semi-Major Axis(m)": 6938478.169268562,
        "Time(s)": 190
    },
    {
        "Altitude(m)": 582551.7772884329,
        "Argument of Periapsis(deg)": -0.007930933608060494,
        "Eccentricity": 0.0,
        "Inclination(deg)": 97.0,
        "Latitude(deg)": -49.32675429798905,
        "Longitude(deg)": 27.36704488061864,
        "Mean Anomaly(deg)": -49.55947604589914,
        "RAAN(deg)": 120.00208668548017,
        "Satellite Name": "Starlink Shell 3 1864",
        "Satellite Number": 1864,
        "Semi-Major Axis(m)": 6938478.169268562,
        "Time(s)": 200
    },
    {
        "Altitude(m)": 582305.9038719655,
        "Argument of Periapsis(deg)": -0.008327480288463517,
        "Eccentricity": 0.0,
        "Inclination(deg)": 97.0,
        "Latitude(deg)": -48.714039515808444,
        "Longitude(deg)": 27.149631389371073,
        "Mean Anomaly(deg)": -48.933999848194134,
        "RAAN(deg)": 120.00219101975418,
        "Satellite Name": "Starlink Shell 3 1864",
        "Satellite Number": 1864,
        "Semi-Major Axis(m)": 6938478.169268562,
        "Time(s)": 210
    },
    {
        "Altitude(m)": 582058.74259578,
        "Argument of Periapsis(deg)": -0.008724026968866542,
        "Eccentricity": 0.0,
        "Inclination(deg)": 97.0,
        "Latitude(deg)": -48.10097150124424,
        "Longitude(deg)": 26.936422386069744,
        "Mean Anomaly(deg)": -48.30852365048903,
        "RAAN(deg)": 120.00229535402818,
        "Satellite Name": "Starlink Shell 3 1864",
        "Satellite Number": 1864,
        "Semi-Major Axis(m)": 6938478.169268562,
        "Time(s)": 220
    },
    {
        "Altitude(m)": 581810.3914137966,
        "Argument of Periapsis(deg)": -0.009120573649269567,
        "Eccentricity": 0.0,
        "Inclination(deg)": 97.0,
        "Latitude(deg)": -47.48756139613547,
        "Longitude(deg)": 26.727232258824582,
        "Mean Anomaly(deg)": -47.68304745278401,
        "RAAN(deg)": 120.0023996883022,
        "Satellite Name": "Starlink Shell 3 1864",
        "Satellite Number": 1864,
        "Semi-Major Axis(m)": 6938478.169268562,
        "Time(s)": 230
    },
    {
        "Altitude(m)": 581560.9486505406,
        "Argument of Periapsis(deg)": -0.009517120329672592,
        "Eccentricity": 0.0,
        "Inclination(deg)": 97.0,
        "Latitude(deg)": -46.873819742164414,
        "Longitude(deg)": 26.52188607913091,
        "Mean Anomaly(deg)": -47.057571255079026,
        "RAAN(deg)": 120.0025040225762,
        "Satellite Name": "Starlink Shell 3 1864",
        "Satellite Number": 1864,
        "Semi-Major Axis(m)": 6938478.169268562,
        "Time(s)": 240
    },
    {
        "Altitude(m)": 581310.5129573573,
        "Argument of Periapsis(deg)": -0.009913667010075618,
        "Eccentricity": 0.0,
        "Inclination(deg)": 97.0,
        "Latitude(deg)": -46.25975652536184,
        "Longitude(deg)": 26.32021789945906,
        "Mean Anomaly(deg)": -46.432095057373914,
        "RAAN(deg)": 120.00260835685022,
        "Satellite Name": "Starlink Shell 3 1864",
        "Satellite Number": 1864,
        "Semi-Major Axis(m)": 6938478.169268562,
        "Time(s)": 250
    },
    {
        "Altitude(m)": 581059.1832683859,
        "Argument of Periapsis(deg)": -0.010310213690478642,
        "Eccentricity": 0.0,
        "Inclination(deg)": 97.0,
        "Latitude(deg)": -45.645381217004264,
        "Longitude(deg)": 26.122070618898814,
        "Mean Anomaly(deg)": -45.8066188596689,
        "RAAN(deg)": 120.00271269112422,
        "Satellite Name": "Starlink Shell 3 1864",
        "Satellite Number": 1864,
        "Semi-Major Axis(m)": 6938478.169268562,
        "Time(s)": 260
    },
    {
        "Altitude(m)": 580807.0587563517,
        "Argument of Periapsis(deg)": -0.010706760370881667,
        "Eccentricity": 0.0,
        "Inclination(deg)": 97.0,
        "Latitude(deg)": -45.03070281123764,
        "Longitude(deg)": 25.927295898974226,
        "Mean Anomaly(deg)": -45.1811426619638,
        "RAAN(deg)": 120.00281702539824,
        "Satellite Name": "Starlink Shell 3 1864",
        "Satellite Number": 1864,
        "Semi-Major Axis(m)": 6938478.169268562,
        "Time(s)": 270
    },
    {
        "Altitude(m)": 580554.2387882312,
        "Argument of Periapsis(deg)": -0.011103307051284692,
        "Eccentricity": 0.0,
        "Inclination(deg)": 97.0,
        "Latitude(deg)": -44.41572985972979,
        "Longitude(deg)": 25.735752612253425,
        "Mean Anomaly(deg)": -44.555666464258806,
        "RAAN(deg)": 120.00292135967224,
        "Satellite Name": "Starlink Shell 3 1864",
        "Satellite Number": 1864,
        "Semi-Major Axis(m)": 6938478.169268562,
        "Time(s)": 280
    },
    {
        "Altitude(m)": 580300.8228807477,
        "Argument of Periapsis(deg)": -0.011499853731687715,
        "Eccentricity": 0.0,
        "Inclination(deg)": 97.0,
        "Latitude(deg)": -43.80047050361075,
        "Longitude(deg)": 25.5473068454443,
        "Mean Anomaly(deg)": -43.930190266553794,
        "RAAN(deg)": 120.00302569394627,
        "Satellite Name": "Starlink Shell 3 1864",
        "Satellite Number": 1864,
        "Semi-Major Axis(m)": 6938478.169268562,
        "Time(s)": 290
    },
    {
        "Altitude(m)": 580046.9106557601,
        "Argument of Periapsis(deg)": -0.011896400412090741,
        "Eccentricity": 0.0,
        "Inclination(deg)": 97.0,
        "Latitude(deg)": -43.18493250294644,
        "Longitude(deg)": 25.361831940454074,
        "Mean Anomaly(deg)": -43.30471406884871,
        "RAAN(deg)": 120.00313002822024,
        "Satellite Name": "Starlink Shell 3 1864",
        "Satellite Number": 1864,
        "Semi-Major Axis(m)": 6938478.169268562,
        "Time(s)": 300
    },
    {
        "Altitude(m)": 579792.6017955426,
        "Argument of Periapsis(deg)": -0.012292947092493765,
        "Eccentricity": 0.0,
        "Inclination(deg)": 97.0,
        "Latitude(deg)": -42.569123263963135,
        "Longitude(deg)": 25.179207057246636,
        "Mean Anomaly(deg)": -42.67923787114365,
        "RAAN(deg)": 120.00323436249427,
        "Satellite Name": "Starlink Shell 3 1864",
        "Satellite Number": 1864,
        "Semi-Major Axis(m)": 6938478.169268562,
        "Time(s)": 310
    },
    {
        "Altitude(m)": 579537.9959980155,
        "Argument of Periapsis(deg)": -0.012689493772896788,
        "Eccentricity": 0.0,
        "Inclination(deg)": 97.0,
        "Latitude(deg)": -41.95304986421136,
        "Longitude(deg)": 24.999317281268077,
        "Mean Anomaly(deg)": -42.0537616734386,
        "RAAN(deg)": 120.00333869676827,
        "Satellite Name": "Starlink Shell 3 1864",
        "Satellite Number": 1864,
        "Semi-Major Axis(m)": 6938478.169268562,
        "Time(s)": 320
    },
    {
        "Altitude(m)": 579283.1929318847,
        "Argument of Periapsis(deg)": -0.013086040453299813,
        "Eccentricity": 0.0,
        "Inclination(deg)": 97.0,
        "Latitude(deg)": -41.33671907584954,
        "Longitude(deg)": 24.82205375988001,
        "Mean Anomaly(deg)": -41.428285475733546,
        "RAAN(deg)": 120.00344303104228,
        "Satellite Name": "Starlink Shell 3 1864",
        "Satellite Number": 1864,
        "Semi-Major Axis(m)": 6938478.169268562,
        "Time(s)": 330
    },
    {
        "Altitude(m)": 579028.2921917633,
        "Argument of Periapsis(deg)": -0.01348258713370284,
        "Eccentricity": 0.0,
        "Inclination(deg)": 97.0,
        "Latitude(deg)": -40.72013738720678,
        "Longitude(deg)": 24.64731235249417,
        "Mean Anomaly(deg)": -40.802809278028484,
        "RAAN(deg)": 120.00354736531628,
        "Satellite Name": "Starlink Shell 3 1864",
        "Satellite Number": 1864,
        "Semi-Major Axis(m)": 6938478.169268562,
        "Time(s)": 340
    },
    {
        "Altitude(m)": 578773.3932532641,
        "Argument of Periapsis(deg)": -0.013879133814105863,
        "Eccentricity": 0.0,
        "Inclination(deg)": 97.0,
        "Latitude(deg)": -40.10331102276431,
        "Longitude(deg)": 24.474993817947652,
        "Mean Anomaly(deg)": -40.17733308032353,
        "RAAN(deg)": 120.0036516995903,
        "Satellite Name": "Starlink Shell 3 1864",
        "Satellite Number": 1864,
        "Semi-Major Axis(m)": 6938478.169268562,
        "Time(s)": 350
    },
    {
        "Altitude(m)": 578518.5954281463,
        "Argument of Periapsis(deg)": -0.01427568049450889,
        "Eccentricity": 0.0,
        "Inclination(deg)": 97.0,
        "Latitude(deg)": -39.486245961686926,
        "Longitude(deg)": 24.305004024245655,
        "Mean Anomaly(deg)": -39.55185688261849,
        "RAAN(deg)": 120.0037560338643,
        "Satellite Name": "Starlink Shell 3 1864",
        "Satellite Number": 1864,
        "Semi-Major Axis(m)": 6938478.169268562,
        "Time(s)": 360
    },
    {
        "Altitude(m)": 578263.9978194063,
        "Argument of Periapsis(deg)": -0.014672227174911913,
        "Eccentricity": 0.0,
        "Inclination(deg)": 97.0,
        "Latitude(deg)": -38.868947955026634,
        "Longitude(deg)": 24.13725266598263,
        "Mean Anomaly(deg)": -38.926380684913426,
        "RAAN(deg)": 120.00386036813833,
        "Satellite Name": "Starlink Shell 3 1864",
        "Satellite Number": 1864,
        "Semi-Major Axis(m)": 6938478.169268562,
        "Time(s)": 370
    }
]